ONEWEB-0158             
1 48054U 21025N   25281.66607328 -.00000336  00000+0 -95457-3 0  9993
2 48054  87.9057  10.1844 0001548 107.9017 252.2281 13.13469347220614
ONEWEB-0157             
1 48055U 21025P   25281.69147052  .00000265  00000+0  68997-3 0  9998
2 48055  87.9053  10.1863 0002281 102.4860 257.6524 13.13469218220552
ONEWEB-0162             
1 48056U 21025Q   25281.66763464 -.00000268  00000+0 -76994-3 0  9998
2 48056  87.9056  10.1914 0001851 100.2978 259.8360 13.13470169220527
ONEWEB-0155             
1 48057U 21025R   25281.67453801 -.00000096  00000+0 -29710-3 0  9994
2 48057  87.9053  10.1964 0001933 106.2531 253.8811 13.13469938220664
ONEWEB-0149             
1 48058U 21025S   25281.31565786  .00000336  00000+0  88514-3 0  9994
2 48058  87.9052  10.2618 0001889  94.0393 266.0952 13.13468926220423
ONEWEB-0148             
1 48059U 21025T   25281.50694021 -.00000190  00000+0 -55482-3 0  9999
2 48059  87.9049  10.2480 0002213  86.4612 273.6770 13.13470361220572
ONEWEB-0160             
1 48060U 21025U   25281.67622669 -.00000081  00000+0 -25607-3 0  9993
2 48060  87.9045  10.2112 0001041 103.4772 256.6473 13.13470109220545
ONEWEB-0163             
1 48061U 21025V   25281.50864919 -.00000715  00000+0 -19927-2 0  9993
2 48061  87.9052  10.2265 0002062 103.2651 256.8708 13.13462064220646
